H-2A R/B                
1 27601U 02056E   24140.87365649  .00001186  00000+0  43781-3 0  9999
2 27601  98.2287 119.3498 0070561 326.9208  94.6538 14.32802363119714
CZ-4B R/B               
1 28059U 03049C   24140.89851878  .00001522  00000+0  36870-3 0  9991
2 28059  98.6090 102.4755 0050420  82.6193 278.0728 14.53747215 90813
CZ-2C R/B               
1 28222U 04012C   24140.56765272  .00019398  00000+0  75609-3 0  9993
2 28222  97.8049 152.2969 0036146 147.6829 212.6633 15.25384545102756
SL-16 R/B               
1 28353U 04021B   24140.52159229 -.00000112  00000+0 -33427-4 0  9992
2 28353  70.9994 175.6281 0006955 304.3124  55.7339 14.14410199 29628
CZ-4B R/B               
1 28415U 04035C   24140.61478652  .00012431  00000+0  64642-3 0  9997
2 28415  97.4259 174.9134 0044806 121.6972 238.8641 15.15308656 79634
CZ-2C R/B               
1 28480U 04046B   24141.45044821  .00000760  00000+0  30136-3 0  9994
2 28480  98.1610  87.5330 0139551 301.6989  57.0649 14.26365064 14648
ARIANE 5 R/B            
1 28499U 04049H   24140.84828318  .00002492  00000+0  29765-3 0  9990
2 28499  98.1796 278.1616 0087499 325.3448  34.2081 14.82495799 48098
CZ-2D R/B               
1 28738U 05024B   24140.54161819  .00018910  00000+0  74818-3 0  9994
2 28738  97.3633 139.5311 0007090 234.0479 126.0102 15.25478895 38297
SUZAKU (ASTRO-EII)      
1 28773U 05025A   24140.83941896  .00050441  00000+0  10587-2 0  9994
2 28773  31.3888 331.6215 0003541   4.1611 355.9073 15.44115019 42624
ALOS (DAICHI)           
1 28931U 06002A   24141.44154521  .00004396  00000+0  81641-3 0  9993
2 28931  98.0348  95.0975 0001029 119.0696 241.0611 14.65679787977284
H-2A R/B                
1 28932U 06002B   24140.84327819  .00010351  00000+0  77666-3 0  9999
2 28932  98.2074 230.9614 0070553 298.6303  60.7835 15.00857295995185
RESURS-DK 1             
1 29228U 06021A   24141.14632974  .00005331  00000+0  36103-3 0  9997
2 29228  69.9328 133.6593 0002506   7.6470 352.4730 15.07078807988124
GENESIS 1               
1 29252U 06029A   24140.76213228  .00030455  00000+0  81727-3 0  9993
2 29252  64.5159 261.9779 0021069 327.2716  32.7109 15.37615458986289
CZ-4B R/B               
1 29507U 06046C   24141.54331901  .00007660  00000+0  50073-3 0  9993
2 29507  97.6450 177.7597 0040584  14.0400 346.1946 15.07400300960603
CZ-2C R/B               
1 31114U 07010B   24141.34891355  .00000438  00000+0  22164-3 0  9990
2 31114  98.3284 279.0468 0060272  50.3117 310.3354 14.19781808886295
COSMO-SKYMED 1          
1 31598U 07023A   24141.52413522  .00001718  00000+0  22237-3 0  9999
2 31598  97.8867 325.0764 0001641  86.2051 273.9350 14.82157213917105
GENESIS 2               
1 31789U 07028A   24141.55236585  .00027306  00000+0  77010-3 0  9991
2 31789  64.4901 304.8017 0025465 224.3470 135.5623 15.36011188933230
COSMOS 2428             
1 31792U 07029A   24140.45171498 -.00000010  00000+0  20233-4 0  9995
2 31792  70.9422 147.0694 0007257  88.9962 271.1991 14.12719896870982
SL-16 R/B               
1 31793U 07029B   24141.16274399  .00000015  00000+0  32805-4 0  9991
2 31793  70.9740 116.4633 0002967 270.2324 168.8891 14.14627963872326
KORONAS-FOTON           
1 33504U 09003A   24140.74105816  .00014649  00000+0  56897-3 0  9991
2 33504  82.4386 231.5705 0014752 346.0787  14.0041 15.25854973844819
CZ-2C R/B               
1 37731U 11030B   24140.88003073  .00004437  00000+0  61219-3 0  9995
2 37731  97.7612 105.7985 0055457 333.6850  79.2716 14.77595355692677
H-2A R/B                
1 38341U 12025E   24140.70788690  .00007120  00000+0  75669-3 0  9990
2 38341  98.4259  50.4551 0049378 301.4716  58.1677 14.88445339650038
CUSAT 2 & FALCON 9 R/B  
1 39271U 13055G   24141.42286375  .00100944  11377-5  11919-2 0  9990
2 39271  80.9310 113.1015 0316626  40.6843 321.7573 15.18956223561154
SHIJIAN-16 (SJ-16)      
1 39358U 13057A   24141.56074429  .00002499  00000+0  26964-3 0  9996
2 39358  74.9742 347.9660 0018380 263.3996  96.5098 14.88724001573508
CZ-2C R/B               
1 39364U 13059B   24141.10251212  .00271169  27800-4  10514-2 0  9999
2 39364  97.0379 190.5007 0012495 259.2979 100.6887 15.87047329588803
SL-4 R/B                
1 39679U 14021B   24140.75291232  .00015243  00000+0  56871-3 0  9998
2 39679  51.6117 263.5560 0137667 257.2290 101.3271 15.19128154555761
ALOS-2                  
1 39766U 14029A   24141.51597920  .00005119  00000+0  69193-3 0  9993
2 39766  97.9221 238.5531 0001649  96.7757 263.3642 14.79468365539580
SL-27 R/B               
1 40354U 14084B   24140.47890023  .00073418  00000+0  53010-3 0  9991
2 40354  74.7232 272.3740 0017655  87.9465 272.3786 15.72989649529620
YAOGAN-29               
1 41038U 15069A   24141.49032636  .00001496  00000+0  19673-3 0  9990
2 41038  98.0556 155.7394 0001715  19.7909 340.3370 14.81721523458364
ASTRO-H (HITOMI)        
1 41337U 16012A   24140.58734524  .00006603  00000+0  46469-3 0  9993
2 41337  31.0024 270.9437 0010847 211.3362 148.6628 15.03613049452716
HXMT (HUIYAN)           
1 42758U 17034A   24141.26386349  .00011369  00000+0  62515-3 0  9995
2 42758  43.0146  69.3020 0015152 336.3377  23.6771 15.13991752382622
CZ-2C R/B               
1 43521U 18054D   24141.51384007  .00020957  00000+0  71524-3 0  9997
2 43521  35.1475 291.5142 0058139 240.3055 119.1868 15.27791252326636
SAOCOM 1A               
1 43641U 18076A   24141.53266121  .00001432  00000+0  18646-3 0  9995
2 43641  97.8888 328.1597 0001457  88.7409 271.3971 14.82154997303877
H-2A R/B                
1 43682U 18084L   24140.81972634  .00017823  00000+0  95008-3 0  9990
2 43682  98.8516 223.6576 0045984 104.8257 255.8071 15.14340953305203
SAOCOM 1B               
1 46265U 20059A   24141.49639273  .00001499  00000+0  19482-3 0  9993
2 46265  97.8888 327.2163 0001524  87.7785 272.3602 14.82158226201263
CSS (TIANHE)            
1 48274U 21035A   24141.49842824  .00058227  00000+0  57782-3 0  9994
2 48274  41.4682 252.1760 0002722  17.6584 342.4351 15.64878604174765
COSMOS 2550             
1 48865U 21056A   24141.50773360  .00000111  00000+0  92004-5 0  9990
2 48865  67.1401 232.0382 0008428 269.8107  90.2081 15.33830449162534
2022-019U               
1 51842U 22019U   24141.51072545  .00187458  00000+0  14678-2 0  9995
2 51842  97.5098 246.2011 0027118 199.2940 160.7298 15.70539082124762
CZ-2C R/B               
1 52794U 22058K   24141.06620257  .00021692  00000+0  85084-3 0  9991
2 52794  50.1729  18.8245 0081015  15.6315 344.7117 15.22616398108837
XRISM                   
1 57800U 23137A   24141.16628890  .00008010  00000+0  60717-3 0  9990
2 57800  31.0022 190.9435 0009615 289.1338  70.8257 15.00921648 38473`
